QIANFAN-17              
1 60395U 24140S   25299.99902463  .00000044  00000+0  48854-4 0  9993
2 60395  88.9743 304.2769 0014491 348.9034  11.1795 13.50970562 61824
QIANFAN-18              
1 60396U 24140T   25299.97842559  .00000041  00000+0  44794-4 0  9997
2 60396  88.9735 303.8159 0013239 331.1856  28.8562 13.50970705 61218
QIANFAN-19              
1 61552U 24185A   25299.88778479  .00000840  00000+0  43329-3 0  9999
2 61552  88.9784  83.3036 0009099  95.4530 264.7695 14.14219541 63045
QIANFAN-20              
1 61553U 24185B   25299.88115391  .00000653  00000+0  37052-3 0  9996
2 61553  88.9782  83.5810 0007435 124.9964 235.1918 14.08768361 62891
QIANFAN-21              
1 61554U 24185C   25299.90370795  .00001021  00000+0  45108-3 0  9992
2 61554  88.9700  82.4589 0011812 147.1179 213.0750 14.22506528 63310
QIANFAN-22              
1 61555U 24185D   25299.94536254  .00000308  00000+0  25541-3 0  9997
2 61555  88.9766  84.3673 0008132 129.3635 230.8258 13.86277555 62456
QIANFAN-23              
1 61556U 24185E   25299.92922121  .00000845  00000+0  41959-3 0  9995
2 61556  88.9777  83.1305 0009843 104.8073 255.4206 14.16217911 63127
QIANFAN-24              
1 61557U 24185F   25299.94597643  .00000864  00000+0  37217-3 0  9998
2 61557  88.9758  82.6101 0011645  91.7240 268.5286 14.23713515 63366
